OBJECT_NAME,OBJECT_ID,EPOCH,MEAN_MOTION,ECCENTRICITY,INCLINATION,RA_OF_ASC_NODE,ARG_OF_PERICENTER,MEAN_ANOMALY,EPHEMERIS_TYPE,CLASSIFICATION_TYPE,NORAD_CAT_ID,ELEMENT_SET_NO,REV_AT_EPOCH,BSTAR,MEAN_MOTION_DOT,MEAN_MOTION_DDOT
GEOSCAN 3 (RS92S3),2025-155T,2026-06-07T11:33:02.636928,15.35072184,.0005299,97.4536,128.2477,192.8625,167.2484,0,U,64893,999,7936,.5323E-3,.18062E-3,0
INNOSAT 3 (RS92S0),2025-155U,2026-06-07T11:00:09.144288,15.43146773,.0004679,97.4488,129.7268,176.8729,183.2548,0,U,64894,999,7946,.86161E-3,.38221E-3,0
KNACKSAT-2,1998-067XZ,2026-06-07T05:25:32.092032,15.59067140,.0010424,51.6300,344.5496,171.5518,188.5652,0,U,67683,999,1872,.6132E-3,.48677E-3,0
