GEOSCAN 3 (RS92S3)      
1 64893U 25155T   26158.48128052  .00018062  00000+0  53230-3 0  9992
2 64893  97.4536 128.2477 0005299 192.8625 167.2484 15.35072184 79368
INNOSAT 3 (RS92S0)      
1 64894U 25155U   26158.45843917  .00038221  00000+0  86161-3 0  9992
2 64894  97.4488 129.7268 0004679 176.8729 183.2548 15.43146773 79462
KNACKSAT-2              
1 67683U 98067XZ  26158.22606588  .00048677  00000+0  61320-3 0  9995
2 67683  51.6300 344.5496 0010424 171.5518 188.5652 15.59067140 18722
